satname,norad_id,inclination_deg,eccentricity,mean_motion_rev_per_day,perigee_km,apogee_km,l1,l2
STARLINK-1234,45190,53.0356,0.000473,15.75436662,340.2096142271639,346.56817772475733,1 45190U 20012N   26164.38278444  .00066301  00000+0  42931-3 0  9990,2 45190  53.0356 212.7057 0004730 298.2953  61.7588 15.75436662350906
STARLINK-1269,45197,53.1564,1.4e-05,15.35521467,459.2763076717847,459.4677579247027,1 45197U 20012V   26164.64951310  .00045426  00000+0  13003-2 0  9998,2 45197  53.1564 312.6447 0000140 180.3090 179.7913 15.35521467349625
STARLINK-1154,45198,53.0423,0.0002768,15.64260114,373.4981294235122,377.23686951441687,1 45198U 20012W   26164.53762336  .00041327  00000+0  42879-3 0  9995,2 45198  53.0423 266.8011 0002768   4.4344 355.6694 15.64260114350200
STARLINK-1199,45201,53.1574,0.0002684,15.35539919,457.4820841332512,461.15242957833107,1 45201U 20012Z   26164.68567020  .00055826  00000+0  15922-2 0  9996,2 45201  53.1574 296.7472 0002684 309.4413  50.6352 15.35539919349872
STARLINK-1209,45206,53.0372,0.0007002,15.6634172,364.6581337166481,374.10736037040806,1 45206U 20012AE  26164.42900187  .00044093  00000+0  42027-3 0  9999,2 45206  53.0372 227.4627 0007002 266.5337  93.4877 15.66341720349852
STARLINK-1231,45212,53.0386,0.0002323,15.28268874,479.39375978801854,482.58050886082583,1 45212U 20012AL  26164.63170650  .00037117  00000+0  13357-2 0  9995,2 45212  53.0386 292.5080 0002323  74.7756 285.3499 15.28268874349864
STARLINK-1271,45217,53.1572,0.000228,15.35691267,457.3091748907982,460.42684917628503,1 45217U 20012AR  26164.61736137  .00046128  00000+0  13129-2 0  9995,2 45217  53.1572 297.1787 0002280 306.5574  53.5219 15.35691267349867
STARLINK-1191,45222,53.1545,0.0002282,15.3974699,445.2994037233357,448.41433092438183,1 45222U 20012AW  26164.58227275  .00038083  00000+0  95328-3 0  9998,2 45222  53.1545 270.1765 0002282 264.1240  95.9505 15.39746990350241
STARLINK-1212,45223,53.0392,9.71e-05,15.67786563,364.5817358158056,365.8912989528817,1 45223U 20012AX  26164.82449369  .00051913  00000+0  46593-3 0  9993,2 45223  53.0392 241.0657 0000971  59.4171 300.6941 15.67786563350655
STARLINK-1215,45225,53.1562,0.0003735,15.3588904,455.72767337927417,460.8344776816966,1 45225U 20012AZ  26164.61625162  .00047291  00000+0  13369-2 0  9997,2 45225  53.1562 271.4482 0003735 311.9494  48.1191 15.35889040350183
STARLINK-1221,45227,53.063,0.000291,15.45009162,429.36959049991674,433.3327126041204,1 45227U 20012BB  26164.35251175  .00013894  00000+0  29829-3 0  9990,2 45227  53.0630 175.1940 0002910 344.4432  15.6484 15.45009162351484
STARLINK-1222,45228,53.0527,0.0003932,15.55675338,397.5249771060926,402.8554536282563,1 45228U 20012BC  26164.47780640  .00069403  00000+0  98991-3 0  9991,2 45228  53.0527 241.5140 0003932   8.3083 351.7992 15.55675338350508
STARLINK-1226,45229,53.156,0.0003774,15.44816343,429.34765068174056,434.48788001862795,1 45229U 20012BD  26164.54693493  .00049659  00000+0  10452-2 0  9995,2 45229  53.1560 267.4506 0003774 307.8078  52.2587 15.44816343350172
STARLINK-1227,45230,53.1543,0.0003641,15.44915964,429.14557214253546,434.104440835662,1 45230U 20012BE  26164.55639667  .00049553  00000+0  10395-2 0  9990,2 45230  53.1543 267.5081 0003641 297.7657  62.2981 15.44915964350298
STARLINK-1246,45235,53.1574,0.0001996,15.35485706,458.1134067450821,460.84298273082095,1 45235U 20012BK  26164.72109140  .00046793  00000+0  13403-2 0  9998,2 45235  53.1574 311.9373 0001996 258.7795 101.2983 15.35485706349690
STARLINK-1270,45237,53.0396,0.0003614,15.63541684,374.9946503774563,379.87757862461785,1 45237U 20012BM  26164.47249476  .00081911  00000+0  86417-3 0  9996,2 45237  53.0396 244.3711 0003614 328.5697  31.5100 15.63541684350578
STARLINK-1279,45360,53.0351,0.0001958,15.76903141,337.905761334232,340.53627873487676,1 45360U 20019A   26164.83335647  .00942930  00000+0  52008-2 0  9991,2 45360  53.0351 345.2150 0001958 110.0659  65.2176 15.76903141  5966
STARLINK-1301,45361,53.0342,6.08e-05,15.81465703,325.8873569649286,326.7026158944782,1 45361U 20019B   26164.83335647  .00130850  00000+0  63870-3 0  9992,2 45361  53.0342 347.5413 0000608 328.3763 122.1063 15.81465703  6035
STARLINK-1262,45366,53.1538,0.0004027,15.3454415,459.5201957243098,465.0294634118436,1 45366U 20019G   26164.04471252  .00076328  00000+0  22367-2 0  9997,2 45366  53.1538  81.5946 0004027 105.6905 254.4542 15.34544150344361
STARLINK-1273,45367,53.0448,0.0004682,15.5784033,390.738016049595,397.07935963168984,1 45367U 20019H   26164.85111646  .00049129  00000+0  65009-3 0  9995,2 45367  53.0448  52.4557 0004682  85.2380 274.9166 15.57840330344827
STARLINK-1277,45369,53.0424,0.0004169,15.65028087,370.3433679588643,375.9725977155549,1 45369U 20019K   26164.84013230  .00046825  00000+0  47017-3 0  9995,2 45369  53.0424  46.2165 0004169  74.8485 285.2990 15.65028087344915
STARLINK-1281,45370,53.156,0.0004913,15.35363223,456.48233628483104,463.2013342883838,1 45370U 20019L   26164.05313728  .00041623  00000+0  11986-2 0  9991,2 45370  53.1560  81.1502 0004913  86.8838 273.2727 15.35363223344370
STARLINK-1300,45374,53.1574,0.0004562,15.35941885,455.00556487029917,461.2429696505469,1 45374U 20019Q   26164.06356784  .00043656  00000+0  12334-2 0  9991,2 45374  53.1574  80.9903 0004562 103.1231 257.0282 15.35941885344373
STARLINK-1302,45375,53.0457,0.0004588,15.67958788,361.64907920115456,367.8363456252655,1 45375U 20019R   26164.82470961  .00050999  00000+0  45449-3 0  9992,2 45375  53.0457  42.2483 0004588  89.9391 270.2150 15.67958788344964
STARLINK-1304,45376,53.0423,0.0004328,15.6366471,374.15810788591625,380.00542525025776,1 45376U 20019S   26164.84293432  .00093552  00000+0  97991-3 0  9992,2 45376  53.0423  43.6612 0004328 101.8295 258.3204 15.63664710344946
STARLINK-1305,45377,53.0379,0.0002407,15.72325797,350.6317156078394,353.8717247377308,1 45377U 20019T   26164.89065744  .00068379  00000+0  50599-3 0  9993,2 45377  53.0379  21.5788 0002407 245.3568 114.7199 15.72325797345262
STARLINK-1319,45379,53.0377,0.0002314,15.78549747,332.9955823648943,336.1022133984343,1 45379U 20019V   26164.83593654  .00089703  00000+0  50366-3 0  9991,2 45379  53.0377  13.2882 0002314 107.3312 252.7962 15.78549747345378
STARLINK-1266,45383,53.0455,0.0001088,15.66454478,368.3248440307234,369.7930338670394,1 45383U 20019Z   26164.84876477  .00048167  00000+0  45679-3 0  9994,2 45383  53.0455  28.4695 0001088 182.9221 177.1787 15.66454478345159
STARLINK-1267,45384,53.0435,0.0005867,15.65929119,366.6084828563244,374.5274132423656,1 45384U 20019AA  26164.88234691  .00050291  00000+0  48637-3 0  9993,2 45384  53.0435  19.5479 0005867 132.9043 227.2465 15.65929119345287
STARLINK-1272,45386,53.0395,0.0005953,15.70523131,353.39121904099557,361.4105504465724,1 45386U 20019AC  26164.82224686  .00064209  00000+0  51267-3 0  9999,2 45386  53.0395 358.4183 0005953 112.7160 247.4487 15.70523131345573
STARLINK-1274,45387,53.0203,0.0006672,15.62993043,374.5085407630286,383.52528694567627,1 45387U 20019AD  26164.81497331  .00094456  00000+0  10150-2 0  9990,2 45387  53.0203 357.9934 0006672 168.4909 191.6257 15.62993043345577
STARLINK-1280,45388,53.0358,3.39e-05,15.83458318,320.44217036894315,320.8963494333648,1 45388U 20019AE  26164.82084372  .00122352  00000+0  54486-3 0  9997,2 45388  53.0358   5.4312 0000339 275.8205  84.2779 15.83458318345468
STARLINK-1283,45389,53.0402,0.0002185,15.72338989,350.7434928862276,353.68465630582523,1 45389U 20019AF  26164.76905003  .00067191  00000+0  49708-3 0  9994,2 45389  53.0402 357.6868 0002185 169.4234 190.6830 15.72338989345580
STARLINK-1284,45390,53.0406,0.0003695,15.70661906,354.51550099900305,359.4927702982468,1 45390U 20019AG  26164.79309197  .00059982  00000+0  47697-3 0  9995,2 45390  53.0406  21.5272 0003695  56.6409 303.4961 15.70661906345248
STARLINK-1297,45395,53.0416,0.0005351,15.68969244,358.2407788792925,365.4539101247783,1 45395U 20019AM  26164.87783554  .00058521  00000+0  49914-3 0  9994,2 45395  53.0416  20.2160 0005351  73.5954 286.5650 15.68969244344451
STARLINK-1307,45397,53.0528,0.0001926,15.57127913,394.6694003266912,397.2787879201487,1 45397U 20019AP  26164.84872146  .00038505  00000+0  52554-3 0  9993,2 45397  53.0528  26.7803 0001926 137.8075 222.3084 15.57127913345002
STARLINK-1255,45399,53.0344,0.000399,15.6636223,366.63160853652425,372.0160822911648,1 45399U 20019AR  26164.78917487  .00049471  00000+0  47054-3 0  9999,2 45399  53.0344 354.5268 0003990 132.6155 227.5196 15.66362230345433
STARLINK-1260,45404,53.156,0.0005112,15.38517243,447.0024290348938,453.98402057673593,1 45404U 20019AW  26164.86543027  .00047839  00000+0  12420-2 0  9994,2 45404  53.1560  39.9279 0005112 109.4985 250.6572 15.38517243344730
STARLINK-1263,45405,53.1575,0.0003362,15.35526401,457.05862018363587,461.6561514086461,1 45405U 20019AX  26164.84713105  .00041019  00000+0  11756-2 0  9994,2 45405  53.1575  41.4003 0003362 124.7913 235.3407 15.35526401344714
STARLINK-1265,45406,53.1565,0.0003928,15.38823759,446.90447519409463,452.26833470102065,1 45406U 20019AY  26164.85650772  .00047314  00000+0  12165-2 0  9995,2 45406  53.1565  39.9440 0003928 100.7782 259.3665 15.38823759344730
STARLINK-1278,45408,53.0405,0.0005372,15.69896548,355.57368065067567,362.8122679750768,1 45408U 20019BA  26164.83703523  .00056798  00000+0  46651-3 0  9992,2 45408  53.0405  19.3092 0005372 100.0673 260.0949 15.69896548345001
STARLINK-1296,45412,53.1565,0.0004532,15.39015116,445.9263649610766,452.11450045808397,1 45412U 20019BE  26164.83046275  .00049608  00000+0  12667-2 0  9992,2 45412  53.1565  39.7503 0004532  97.5518 262.6002 15.39015116344730
STARLINK-1309,45414,53.0606,0.0005294,15.68875739,358.5468544186351,365.68343338859995,1 45414U 20019BG  26164.86101286  .00054352  00000+0  46598-3 0  9994,2 45414  53.0606  13.1897 0005294  69.1463 291.0120 15.68875739345071
